[{"OBJECT_NAME":"QIANFAN-86","OBJECT_ID":"2025-046P","EPOCH":"2026-03-03T03:17:42.586080","MEAN_MOTION":13.51000645,"ECCENTRICITY":0.0009291,"INCLINATION":88.9767,"RA_OF_ASC_NODE":311.4823,"ARG_OF_PERICENTER":260.9906,"MEAN_ANOMALY":99.0193,"EPHEMERIS_TYPE":0,"CLASSIFICATION_TYPE":"U","NORAD_CAT_ID":63172,"ELEMENT_SET_NO":999,"REV_AT_EPOCH":5840,"BSTAR":0.00026951,"MEAN_MOTION_DOT":1.86e-6,"MEAN_MOTION_DDOT":0},{"OBJECT_NAME":"QIANFAN-87","OBJECT_ID":"2025-046Q","EPOCH":"2026-03-03T02:36:22.386816","MEAN_MOTION":13.51008952,"ECCENTRICITY":0.0009956,"INCLINATION":88.9763,"RA_OF_ASC_NODE":311.5937,"ARG_OF_PERICENTER":255.1268,"MEAN_ANOMALY":104.8781,"EPHEMERIS_TYPE":0,"CLASSIFICATION_TYPE":"U","NORAD_CAT_ID":63173,"ELEMENT_SET_NO":999,"REV_AT_EPOCH":5833,"BSTAR":0.00027864,"MEAN_MOTION_DOT":1.92e-6,"MEAN_MOTION_DDOT":0},{"OBJECT_NAME":"QIANFAN-88","OBJECT_ID":"2025-046R","EPOCH":"2026-03-03T02:59:50.920224","MEAN_MOTION":13.50997362,"ECCENTRICITY":0.0010368,"INCLINATION":88.9766,"RA_OF_ASC_NODE":311.5487,"ARG_OF_PERICENTER":264.7286,"MEAN_ANOMALY":95.2683,"EPHEMERIS_TYPE":0,"CLASSIFICATION_TYPE":"U","NORAD_CAT_ID":63174,"ELEMENT_SET_NO":999,"REV_AT_EPOCH":5836,"BSTAR":0.00028701,"MEAN_MOTION_DOT":1.97e-6,"MEAN_MOTION_DDOT":0},{"OBJECT_NAME":"QIANFAN-89","OBJECT_ID":"2025-046S","EPOCH":"2026-03-03T03:53:25.654272","MEAN_MOTION":13.51007857,"ECCENTRICITY":0.0014823,"INCLINATION":88.9766,"RA_OF_ASC_NODE":311.7339,"ARG_OF_PERICENTER":253.3911,"MEAN_ANOMALY":106.5613,"EPHEMERIS_TYPE":0,"CLASSIFICATION_TYPE":"U","NORAD_CAT_ID":63175,"ELEMENT_SET_NO":999,"REV_AT_EPOCH":5826,"BSTAR":0.00028177,"MEAN_MOTION_DOT":1.94e-6,"MEAN_MOTION_DDOT":0},{"OBJECT_NAME":"QIANFAN-90","OBJECT_ID":"2025-046T","EPOCH":"2026-03-03T02:48:17.986176","MEAN_MOTION":13.51007657,"ECCENTRICITY":0.0011763,"INCLINATION":88.9766,"RA_OF_ASC_NODE":311.7111,"ARG_OF_PERICENTER":251.7237,"MEAN_ANOMALY":108.2634,"EPHEMERIS_TYPE":0,"CLASSIFICATION_TYPE":"U","NORAD_CAT_ID":63176,"ELEMENT_SET_NO":999,"REV_AT_EPOCH":5827,"BSTAR":0.00029253,"MEAN_MOTION_DOT":2.01e-6,"MEAN_MOTION_DDOT":0},{"OBJECT_NAME":"QIANFAN-91","OBJECT_ID":"2025-233A","EPOCH":"2026-03-03T01:48:29.843424","MEAN_MOTION":13.5100441,"ECCENTRICITY":0.0001909,"INCLINATION":88.9925,"RA_OF_ASC_NODE":53.92,"ARG_OF_PERICENTER":92.766,"MEAN_ANOMALY":267.3709,"EPHEMERIS_TYPE":0,"CLASSIFICATION_TYPE":"U","NORAD_CAT_ID":66033,"ELEMENT_SET_NO":999,"REV_AT_EPOCH":1885,"BSTAR":8.0389e-5,"MEAN_MOTION_DOT":6.4e-7,"MEAN_MOTION_DDOT":0},{"OBJECT_NAME":"QIANFAN-92","OBJECT_ID":"2025-233B","EPOCH":"2026-03-03T03:46:54.721920","MEAN_MOTION":13.51005257,"ECCENTRICITY":0.0001982,"INCLINATION":88.9907,"RA_OF_ASC_NODE":53.9006,"ARG_OF_PERICENTER":87.1613,"MEAN_ANOMALY":272.9765,"EPHEMERIS_TYPE":0,"CLASSIFICATION_TYPE":"U","NORAD_CAT_ID":66034,"ELEMENT_SET_NO":999,"REV_AT_EPOCH":1886,"BSTAR":8.7338e-5,"MEAN_MOTION_DOT":6.8e-7,"MEAN_MOTION_DDOT":0},{"OBJECT_NAME":"QIANFAN-93","OBJECT_ID":"2025-233C","EPOCH":"2026-03-03T02:12:06.832800","MEAN_MOTION":13.51004798,"ECCENTRICITY":0.0001895,"INCLINATION":88.9936,"RA_OF_ASC_NODE":53.9304,"ARG_OF_PERICENTER":90.8731,"MEAN_ANOMALY":269.2638,"EPHEMERIS_TYPE":0,"CLASSIFICATION_TYPE":"U","NORAD_CAT_ID":66035,"ELEMENT_SET_NO":999,"REV_AT_EPOCH":1885,"BSTAR":5.3052e-5,"MEAN_MOTION_DOT":4.6e-7,"MEAN_MOTION_DDOT":0},{"OBJECT_NAME":"QIANFAN-94","OBJECT_ID":"2025-233D","EPOCH":"2026-03-03T03:40:43.639968","MEAN_MOTION":13.50991753,"ECCENTRICITY":0.0002046,"INCLINATION":88.9933,"RA_OF_ASC_NODE":53.8311,"ARG_OF_PERICENTER":88.5561,"MEAN_ANOMALY":271.5825,"EPHEMERIS_TYPE":0,"CLASSIFICATION_TYPE":"U","NORAD_CAT_ID":66036,"ELEMENT_SET_NO":999,"REV_AT_EPOCH":1891,"BSTAR":3.6783e-5,"MEAN_MOTION_DOT":3.6e-7,"MEAN_MOTION_DDOT":0},{"OBJECT_NAME":"QIANFAN-95","OBJECT_ID":"2025-233E","EPOCH":"2026-03-03T02:06:01.544832","MEAN_MOTION":13.51015627,"ECCENTRICITY":0.0002064,"INCLINATION":88.9931,"RA_OF_ASC_NODE":53.3837,"ARG_OF_PERICENTER":95.6195,"MEAN_ANOMALY":264.5191,"EPHEMERIS_TYPE":0,"CLASSIFICATION_TYPE":"U","NORAD_CAT_ID":66037,"ELEMENT_SET_NO":999,"REV_AT_EPOCH":1915,"BSTAR":8.3839e-5,"MEAN_MOTION_DOT":6.6e-7,"MEAN_MOTION_DDOT":0},{"OBJECT_NAME":"QIANFAN-96","OBJECT_ID":"2025-233F","EPOCH":"2026-03-03T04:28:27.263424","MEAN_MOTION":13.51004529,"ECCENTRICITY":0.0001907,"INCLINATION":88.9928,"RA_OF_ASC_NODE":53.9201,"ARG_OF_PERICENTER":94.4901,"MEAN_ANOMALY":265.6468,"EPHEMERIS_TYPE":0,"CLASSIFICATION_TYPE":"U","NORAD_CAT_ID":66038,"ELEMENT_SET_NO":999,"REV_AT_EPOCH":1886,"BSTAR":4.1409e-5,"MEAN_MOTION_DOT":3.9e-7,"MEAN_MOTION_DDOT":0},{"OBJECT_NAME":"QIANFAN-97","OBJECT_ID":"2025-233G","EPOCH":"2026-03-03T04:04:43.953888","MEAN_MOTION":13.51003992,"ECCENTRICITY":0.0001914,"INCLINATION":88.9931,"RA_OF_ASC_NODE":53.9024,"ARG_OF_PERICENTER":91.9942,"MEAN_ANOMALY":268.1428,"EPHEMERIS_TYPE":0,"CLASSIFICATION_TYPE":"U","NORAD_CAT_ID":66039,"ELEMENT_SET_NO":999,"REV_AT_EPOCH":1887,"BSTAR":4.144e-5,"MEAN_MOTION_DOT":3.9e-7,"MEAN_MOTION_DDOT":0},{"OBJECT_NAME":"QIANFAN-98","OBJECT_ID":"2025-233H","EPOCH":"2026-03-03T04:16:30.505440","MEAN_MOTION":13.51004384,"ECCENTRICITY":0.0002442,"INCLINATION":88.992,"RA_OF_ASC_NODE":53.644,"ARG_OF_PERICENTER":86.4915,"MEAN_ANOMALY":273.6516,"EPHEMERIS_TYPE":0,"CLASSIFICATION_TYPE":"U","NORAD_CAT_ID":66040,"ELEMENT_SET_NO":999,"REV_AT_EPOCH":1901,"BSTAR":2.7456e-5,"MEAN_MOTION_DOT":3.0e-7,"MEAN_MOTION_DDOT":0},{"OBJECT_NAME":"QIANFAN-99","OBJECT_ID":"2025-233J","EPOCH":"2026-03-03T04:22:30.133344","MEAN_MOTION":13.51004687,"ECCENTRICITY":0.0002311,"INCLINATION":88.993,"RA_OF_ASC_NODE":53.9044,"ARG_OF_PERICENTER":90.4263,"MEAN_ANOMALY":269.7153,"EPHEMERIS_TYPE":0,"CLASSIFICATION_TYPE":"U","NORAD_CAT_ID":66041,"ELEMENT_SET_NO":999,"REV_AT_EPOCH":1887,"BSTAR":4.1095e-5,"MEAN_MOTION_DOT":3.9e-7,"MEAN_MOTION_DDOT":0},{"OBJECT_NAME":"QIANFAN-100","OBJECT_ID":"2025-233K","EPOCH":"2026-03-03T02:23:57.758784","MEAN_MOTION":13.5100563,"ECCENTRICITY":0.0001898,"INCLINATION":88.9941,"RA_OF_ASC_NODE":53.8278,"ARG_OF_PERICENTER":91.1493,"MEAN_ANOMALY":268.9875,"EPHEMERIS_TYPE":0,"CLASSIFICATION_TYPE":"U","NORAD_CAT_ID":66042,"ELEMENT_SET_NO":999,"REV_AT_EPOCH":1891,"BSTAR":8.1787e-5,"MEAN_MOTION_DOT":6.5e-7,"MEAN_MOTION_DDOT":0},{"OBJECT_NAME":"QIANFAN-101","OBJECT_ID":"2025-233L","EPOCH":"2026-03-03T02:42:41.281056","MEAN_MOTION":14.26730711,"ECCENTRICITY":0.001668,"INCLINATION":88.9932,"RA_OF_ASC_NODE":52.7434,"ARG_OF_PERICENTER":126.24,"MEAN_ANOMALY":234.0338,"EPHEMERIS_TYPE":0,"CLASSIFICATION_TYPE":"U","NORAD_CAT_ID":66043,"ELEMENT_SET_NO":999,"REV_AT_EPOCH":1950,"BSTAR":0.00023682,"MEAN_MOTION_DOT":5.88e-6,"MEAN_MOTION_DDOT":0},{"OBJECT_NAME":"QIANFAN-102","OBJECT_ID":"2025-233M","EPOCH":"2026-03-03T02:53:21.922368","MEAN_MOTION":13.50992287,"ECCENTRICITY":0.000207,"INCLINATION":88.9929,"RA_OF_ASC_NODE":53.8228,"ARG_OF_PERICENTER":89.0333,"MEAN_ANOMALY":271.1055,"EPHEMERIS_TYPE":0,"CLASSIFICATION_TYPE":"U","NORAD_CAT_ID":66044,"ELEMENT_SET_NO":999,"REV_AT_EPOCH":1891,"BSTAR":2.5715e-5,"MEAN_MOTION_DOT":2.9e-7,"MEAN_MOTION_DDOT":0}]
