QIANFAN-86              
1 63172U 25046P   26062.13729845  .00000186  00000+0  26951-3 0  9991
2 63172  88.9767 311.4823 0009291 260.9906  99.0193 13.51000645 58404
QIANFAN-87              
1 63173U 25046Q   26062.10859244  .00000192  00000+0  27864-3 0  9997
2 63173  88.9763 311.5937 0009956 255.1268 104.8781 13.51008952 58332
QIANFAN-88              
1 63174U 25046R   26062.12489491  .00000197  00000+0  28701-3 0  9999
2 63174  88.9766 311.5487 0010368 264.7286  95.2683 13.50997362 58369
QIANFAN-89              
1 63175U 25046S   26062.16210248  .00000194  00000+0  28177-3 0  9990
2 63175  88.9766 311.7339 0014823 253.3911 106.5613 13.51007857 58267
QIANFAN-90              
1 63176U 25046T   26062.11687484  .00000201  00000+0  29253-3 0  9991
2 63176  88.9766 311.7111 0011763 251.7237 108.2634 13.51007657 58270
QIANFAN-91              
1 66033U 25233A   26062.07534541  .00000064  00000+0  80389-4 0  9999
2 66033  88.9925  53.9200 0001909  92.7660 267.3709 13.51004410 18854
QIANFAN-92              
1 66034U 25233B   26062.15757780  .00000068  00000+0  87338-4 0  9996
2 66034  88.9907  53.9006 0001982  87.1613 272.9765 13.51005257 18861
QIANFAN-93              
1 66035U 25233C   26062.09174575  .00000046  00000+0  53052-4 0  9997
2 66035  88.9936  53.9304 0001895  90.8731 269.2638 13.51004798 18856
QIANFAN-94              
1 66036U 25233D   26062.15328287  .00000036  00000+0  36783-4 0  9997
2 66036  88.9933  53.8311 0002046  88.5561 271.5825 13.50991753 18911
QIANFAN-95              
1 66037U 25233E   26062.08751788  .00000066  00000+0  83839-4 0  9993
2 66037  88.9931  53.3837 0002064  95.6195 264.5191 13.51015627 19153
QIANFAN-96              
1 66038U 25233F   26062.18642666  .00000039  00000+0  41409-4 0  9996
2 66038  88.9928  53.9201 0001907  94.4901 265.6468 13.51004529 18863
QIANFAN-97              
1 66039U 25233G   26062.16995317  .00000039  00000+0  41440-4 0  9994
2 66039  88.9931  53.9024 0001914  91.9942 268.1428 13.51003992 18874
QIANFAN-98              
1 66040U 25233H   26062.17813085  .00000030  00000+0  27456-4 0  9990
2 66040  88.9920  53.6440 0002442  86.4915 273.6516 13.51004384 19011
QIANFAN-99              
1 66041U 25233J   26062.18229321  .00000039  00000+0  41095-4 0  9990
2 66041  88.9930  53.9044 0002311  90.4263 269.7153 13.51004687 18874
QIANFAN-100             
1 66042U 25233K   26062.09997406  .00000065  00000+0  81787-4 0  9998
2 66042  88.9941  53.8278 0001898  91.1493 268.9875 13.51005630 18913
QIANFAN-101             
1 66043U 25233L   26062.11297779  .00000588  00000+0  23682-3 0  9997
2 66043  88.9932  52.7434 0016680 126.2400 234.0338 14.26730711 19501
QIANFAN-102             
1 66044U 25233M   26062.12039262  .00000029  00000+0  25715-4 0  9990
2 66044  88.9929  53.8228 0002070  89.0333 271.1055 13.50992287 18916
